{
  "type": "FeatureCollection",
  "features": [
    {
      "type": "Feature",
      "properties": {
        "norad_id": 31841,
        "name": "FENGYUN 1C DEB",
        "group": "fengyun-1c-debris",
        "lat": 6.665786482923395,
        "lon": 163.46680416638202,
        "alt_km": 871.8406420247111,
        "timestamp": "2025-12-22T09:53:37.685964+00:00",
        "meta_object_name": "FENGYUN 1C DEB",
        "meta_object_id": "1999-025CJF",
        "meta_epoch": "2025-12-20T17:06:06.055776",
        "meta_mean_motion": 14.03626742,
        "meta_eccentricity": 0.03086895,
        "meta_inclination": 98.4167,
        "meta_ra_of_asc_node": 162.8817,
        "meta_arg_of_pericenter": 282.8098,
        "meta_mean_anomaly": 136.7596,
        "meta_ephemeris_type": 0,
        "meta_classification_type": "U",
        "meta_norad_cat_id": 31841,
        "meta_element_set_no": 999,
        "meta_rev_at_epoch": 59451,
        "meta_bstar": 0.0011379131,
        "meta_mean_motion_dot": 2.684e-05,
        "meta_mean_motion_ddot": 0,
        "tle_line1": "1 31841U 99025CJF 25354.71257009  .00002684  00000+0  11379-2 0  9994",
        "tle_line2": "2 31841  98.4167 162.8817 0308689 282.8098 136.7596 14.03626742594514"
      },
      "geometry": {
        "type": "Point",
        "coordinates": [
          163.46680416638202,
          6.665786482923395
        ]
      }
    },
    {
      "type": "Feature",
      "properties": {
        "norad_id": 31843,
        "name": "FENGYUN 1C DEB",
        "group": "fengyun-1c-debris",
        "lat": -78.39239966313013,
        "lon": -10.959340280746204,
        "alt_km": 832.4534860206559,
        "timestamp": "2025-12-22T09:53:37.685974+00:00",
        "meta_object_name": "FENGYUN 1C DEB",
        "meta_object_id": "1999-025CJH",
        "meta_epoch": "2025-12-16T15:40:09.812640",
        "meta_mean_motion": 13.33949191,
        "meta_eccentricity": 0.06398792,
        "meta_inclination": 99.2827,
        "meta_ra_of_asc_node": 291.0118,
        "meta_arg_of_pericenter": 344.4578,
        "meta_mean_anomaly": 13.7684,
        "meta_ephemeris_type": 0,
        "meta_classification_type": "U",
        "meta_norad_cat_id": 31843,
        "meta_element_set_no": 999,
        "meta_rev_at_epoch": 64748,
        "meta_bstar": 0.0054292253,
        "meta_mean_motion_dot": 8.684e-05,
        "meta_mean_motion_ddot": 0,
        "tle_line1": "1 31843U 99025CJH 25350.65289135  .00008684  00000+0  54292-2 0  9997",
        "tle_line2": "2 31843  99.2827 291.0118 0639879 344.4578  13.7684 13.33949191647488"
      },
      "geometry": {
        "type": "Point",
        "coordinates": [
          -10.959340280746204,
          -78.39239966313013
        ]
      }
    },
    {
      "type": "Feature",
      "properties": {
        "norad_id": 31844,
        "name": "FENGYUN 1C DEB",
        "group": "fengyun-1c-debris",
        "lat": 48.89846670400105,
        "lon": 178.6802461806783,
        "alt_km": 893.5144742754474,
        "timestamp": "2025-12-22T09:53:37.685984+00:00",
        "meta_object_name": "FENGYUN 1C DEB",
        "meta_object_id": "1999-025CJJ",
        "meta_epoch": "2025-12-20T16:41:28.070592",
        "meta_mean_motion": 14.19779553,
        "meta_eccentricity": 0.01032365,
        "meta_inclination": 100.3021,
        "meta_ra_of_asc_node": 344.6516,
        "meta_arg_of_pericenter": 329.2004,
        "meta_mean_anomaly": 30.3135,
        "meta_ephemeris_type": 0,
        "meta_classification_type": "U",
        "meta_norad_cat_id": 31844,
        "meta_element_set_no": 999,
        "meta_rev_at_epoch": 95445,
        "meta_bstar": 0.00064638823,
        "meta_mean_motion_dot": 1.386e-05,
        "meta_mean_motion_ddot": 0,
        "tle_line1": "1 31844U 99025CJJ 25354.69546378  .00001386  00000+0  64639-3 0  9990",
        "tle_line2": "2 31844 100.3021 344.6516 0103236 329.2004  30.3135 14.19779553954456"
      },
      "geometry": {
        "type": "Point",
        "coordinates": [
          178.6802461806783,
          48.89846670400105
        ]
      }
    },
    {
      "type": "Feature",
      "properties": {
        "norad_id": 31850,
        "name": "FENGYUN 1C DEB",
        "group": "fengyun-1c-debris",
        "lat": -1.9182597612459957,
        "lon": 42.81803534505066,
        "alt_km": 436.1991234586394,
        "timestamp": "2025-12-22T09:53:37.685994+00:00",
        "meta_object_name": "FENGYUN 1C DEB",
        "meta_object_id": "1999-025CJQ",
        "meta_epoch": "2025-12-14T09:23:04.476192",
        "meta_mean_motion": 15.33433546,
        "meta_eccentricity": 0.00762245,
        "meta_inclination": 98.5734,
        "meta_ra_of_asc_node": 33.2199,
        "meta_arg_of_pericenter": 83.7911,
        "meta_mean_anomaly": 277.2005,
        "meta_ephemeris_type": 0,
        "meta_classification_type": "U",
        "meta_norad_cat_id": 31850,
        "meta_element_set_no": 999,
        "meta_rev_at_epoch": 65854,
        "meta_bstar": 0.0030655456,
        "meta_mean_motion_dot": 0.00109983,
        "meta_mean_motion_ddot": 0,
        "tle_line1": "1 31850U 99025CJQ 25348.39102403  .00109983  00000+0  30655-2 0  9996",
        "tle_line2": "2 31850  98.5734  33.2199 0076224  83.7911 277.2005 15.33433546658540"
      },
      "geometry": {
        "type": "Point",
        "coordinates": [
          42.81803534505066,
          -1.9182597612459957
        ]
      }
    },
    {
      "type": "Feature",
      "properties": {
        "norad_id": 31854,
        "name": "FENGYUN 1C DEB",
        "group": "fengyun-1c-debris",
        "lat": -37.84386589343737,
        "lon": 172.39278995749763,
        "alt_km": 901.7332522591896,
        "timestamp": "2025-12-22T09:53:37.686003+00:00",
        "meta_object_name": "FENGYUN 1C DEB",
        "meta_object_id": "1999-025CJU",
        "meta_epoch": "2025-12-21T17:27:39.190752",
        "meta_mean_motion": 14.03088921,
        "meta_eccentricity": 0.0072341,
        "meta_inclination": 98.848,
        "meta_ra_of_asc_node": 358.6778,
        "meta_arg_of_pericenter": 116.2745,
        "meta_mean_anomaly": 244.5878,
        "meta_ephemeris_type": 0,
        "meta_classification_type": "U",
        "meta_norad_cat_id": 31854,
        "meta_element_set_no": 999,
        "meta_rev_at_epoch": 69398,
        "meta_bstar": 0.00055937,
        "meta_mean_motion_dot": 8.48e-06,
        "meta_mean_motion_ddot": 0,
        "tle_line1": "1 31854U 99025CJU 25355.72753693  .00000848  00000+0  55937-3 0  9999",
        "tle_line2": "2 31854  98.8480 358.6778 0072341 116.2745 244.5878 14.03088921693986"
      },
      "geometry": {
        "type": "Point",
        "coordinates": [
          172.39278995749763,
          -37.84386589343737
        ]
      }
    },
    {
      "type": "Feature",
      "properties": {
        "norad_id": 31857,
        "name": "FENGYUN 1C DEB",
        "group": "fengyun-1c-debris",
        "lat": -7.403782337857548,
        "lon": 23.279145592847655,
        "alt_km": 1055.4535445867014,
        "timestamp": "2025-12-22T09:53:37.686013+00:00",
        "meta_object_name": "FENGYUN 1C DEB",
        "meta_object_id": "1999-025CJX",
        "meta_epoch": "2025-12-21T19:49:30.663840",
        "meta_mean_motion": 13.61956441,
        "meta_eccentricity": 0.030968,
        "meta_inclination": 96.1878,
        "meta_ra_of_asc_node": 22.0982,
        "meta_arg_of_pericenter": 256.7702,
        "meta_mean_anomaly": 99.8737,
        "meta_ephemeris_type": 0,
        "meta_classification_type": "U",
        "meta_norad_cat_id": 31857,
        "meta_element_set_no": 999,
        "meta_rev_at_epoch": 61753,
        "meta_bstar": 0.0014311,
        "meta_mean_motion_dot": 1.495e-05,
        "meta_mean_motion_ddot": 0,
        "tle_line1": "1 31857U 99025CJX 25355.82604935  .00001495  00000+0  14311-2 0  9996",
        "tle_line2": "2 31857  96.1878  22.0982 0309680 256.7702  99.8737 13.61956441617538"
      },
      "geometry": {
        "type": "Point",
        "coordinates": [
          23.279145592847655,
          -7.403782337857548
        ]
      }
    },
    {
      "type": "Feature",
      "properties": {
        "norad_id": 31861,
        "name": "FENGYUN 1C DEB",
        "group": "fengyun-1c-debris",
        "lat": -52.64886671164985,
        "lon": -152.36058906757032,
        "alt_km": 1332.9590195248165,
        "timestamp": "2025-12-22T09:53:37.686025+00:00",
        "meta_object_name": "FENGYUN 1C DEB",
        "meta_object_id": "1999-025CKB",
        "meta_epoch": "2025-12-17T09:15:31.165632",
        "meta_mean_motion": 13.30336222,
        "meta_eccentricity": 0.04947395,
        "meta_inclination": 102.3406,
        "meta_ra_of_asc_node": 184.9452,
        "meta_arg_of_pericenter": 194.9897,
        "meta_mean_anomaly": 163.6087,
        "meta_ephemeris_type": 0,
        "meta_classification_type": "U",
        "meta_norad_cat_id": 31861,
        "meta_element_set_no": 999,
        "meta_rev_at_epoch": 66829,
        "meta_bstar": 0.0021126769,
        "meta_mean_motion_dot": 1.896e-05,
        "meta_mean_motion_ddot": 0,
        "tle_line1": "1 31861U 99025CKB 25351.38577738  .00001896  00000+0  21127-2 0  9996",
        "tle_line2": "2 31861 102.3406 184.9452 0494739 194.9897 163.6087 13.30336222668290"
      },
      "geometry": {
        "type": "Point",
        "coordinates": [
          -152.36058906757032,
          -52.64886671164985
        ]
      }
    }
  ]
}